NORAD_CAT_ID,OBJECT_NAME,OBJECT_TYPE,EPOCH,MEAN_MOTION,ECCENTRICITY,INCLINATION,RA_OF_ASC_NODE,ARG_OF_PERICENTER,MEAN_ANOMALY,BSTAR,MEAN_MOTION_DOT,MEAN_MOTION_DDOT,TLE_LINE0,TLE_LINE1,TLE_LINE2,SEMIMAJOR_AXIS,PERIOD,APOGEE,PERIGEE,DECAYED
52585.0,STARLINK-3906,PAYLOAD,2024-01-25 02:44:37,15.08840631,0.0001873,53.2192,356.286,77.0301,283.09,8.5083e-05,1.066e-05,0.0,0 STARLINK-3906,1 52585U 22051BB  24025.11432657  .00001066  00000-0  85083-4 0  9998,2 52585  53.2192 356.2860 0001873  77.0301 283.0900 15.08840631 94726,6917.878,95.438,541.039,538.448,0.0
52585.0,STARLINK-3906,PAYLOAD,2024-01-25 04:20:00,15.08841647,0.0001797,53.2199,355.9873,81.2609,278.8587,0.00010015,1.306e-05,0.0,0 STARLINK-3906,1 52585U 22051BB  24025.18056591  .00001306  00000-0  10015-3 0  9993,2 52585  53.2199 355.9873 0001797  81.2609 278.8587 15.08841647 94660,6917.875,95.437,540.983,538.497,0.0
52585.0,STARLINK-3906,PAYLOAD,2024-01-26 04:10:48,15.08843707,0.0001607,53.2184,351.5337,94.9009,265.2167,0.00017628,2.519e-05,0.0,0 STARLINK-3906,1 52585U 22051BB  24026.17416866  .00002519  00000-0  17628-3 0  9992,2 52585  53.2184 351.5337 0001607  94.9009 265.2167 15.08843707 94883,6917.869,95.437,540.846,538.622,0.0
52585.0,STARLINK-3906,PAYLOAD,2024-01-27 07:12:21,15.08848239,0.0001605,53.2191,346.472,100.9453,259.1719,0.00013965,1.936e-05,0.0,0 STARLINK-3906,1 52585U 22051BB  24027.30024672  .00001936  00000-0  13965-3 0  9990,2 52585  53.2191 346.4720 0001605 100.9453 259.1719 15.08848239 95059,6917.855,95.437,540.831,538.61,0.0
52585.0,STARLINK-3906,PAYLOAD,2024-01-28 03:52:21,15.08845664,0.0001515,53.2185,342.6043,111.5933,248.5221,5.3038e-05,5.56e-06,0.0,0 STARLINK-3906,1 52585U 22051BB  24028.16136567  .00000556  00000-0  53038-4 0  9995,2 52585  53.2185 342.6043 0001515 111.5933 248.5221 15.08845664 95182,6917.863,95.437,540.776,538.68,0.0
52585.0,STARLINK-3906,PAYLOAD,2024-01-28 07:03:08,15.08844974,0.0001551,53.2187,342.0103,112.4493,247.6663,4.942e-05,4.99e-06,0.0,0 STARLINK-3906,1 52585U 22051BB  24028.29384612  .00000499  00000-0  49420-4 0  9991,2 52585  53.2187 342.0103 0001551 112.4493 247.6663 15.08844974 95134,6917.865,95.437,540.803,538.657,0.0
52585.0,STARLINK-3906,PAYLOAD,2024-01-28 21:21:36,15.08838061,0.0001671,53.2186,339.3339,99.858,260.2601,-2.1684e-05,-6.33e-06,0.0,0 STARLINK-3906,1 52585U 22051BB  24028.89000813 -.00000633  00000-0 -21684-4 0  9999,2 52585  53.2186 339.3339 0001671  99.8580 260.2601 15.08838061 95224,6917.886,95.438,540.907,538.595,0.0
52585.0,STARLINK-3906,PAYLOAD,2024-01-29 03:43:09,15.08838119,0.0001597,53.2188,338.1442,97.5742,262.5431,5.8636e-05,6.45e-06,0.0,0 STARLINK-3906,1 52585U 22051BB  24029.15497292  .00000645  00000-0  58636-4 0  9998,2 52585  53.2188 338.1442 0001597  97.5742 262.5431 15.08838119 95332,6917.886,95.438,540.856,538.646,0.0
52585.0,STARLINK-3906,PAYLOAD,2024-01-30 03:33:57,15.08827897,0.0001653,53.2184,333.6836,97.6255,262.4924,0.0007109,0.0001104,0.0,0 STARLINK-3906,1 52585U 22051BB  24030.14857865  .00011040  00000-0  71090-3 0  9994,2 52585  53.2184 333.6836 0001653  97.6255 262.4924 15.08827897 95481,6917.917,95.438,540.926,538.639,0.0
52585.0,STARLINK-3906,PAYLOAD,2024-01-30 05:09:20,15.08833759,0.000176,53.2188,333.3861,105.2581,254.8606,0.0006972,0.00010823,0.0,0 STARLINK-3906,1 52585U 22051BB  24030.21481597  .00010823  00000-0  69720-3 0  9992,2 52585  53.2188 333.3861 0001760 105.2581 254.8606 15.08833759 95427,6917.899,95.438,540.982,538.547,0.0
52585.0,STARLINK-3906,PAYLOAD,2024-01-31 03:24:43,15.0884047,0.0001677,53.2179,329.2301,78.6628,281.4552,8.4352e-05,1.055e-05,0.0,0 STARLINK-3906,1 52585U 22051BB  24031.14217405  .00001055  00000-0  84352-4 0  9996,2 52585  53.2179 329.2301 0001677  78.6628 281.4552 15.08840470 95561,6917.879,95.438,540.904,538.584,0.0
52585.0,STARLINK-3906,PAYLOAD,2024-02-01 01:40:08,15.08837642,0.000174,53.2188,325.0649,75.994,284.1246,-7.579e-05,-1.494e-05,0.0,0 STARLINK-3906,1 52585U 22051BB  24032.06953841 -.00001494  00000-0 -75790-4 0  9994,2 52585  53.2188 325.0649 0001740  75.9940 284.1246 15.08837642 95778,6917.888,95.438,540.956,538.549,0.0
52585.0,STARLINK-3906,PAYLOAD,2024-02-01 19:09:22,15.08851072,0.0001515,53.2181,321.7933,95.5774,264.5391,-0.00010459,-1.953e-05,0.0,0 STARLINK-3906,1 52585U 22051BB  24032.79817335 -.00001953  00000-0 -10459-3 0  9991,2 52585  53.2181 321.7933 0001515  95.5774 264.5391 15.08851072 95881,6917.847,95.437,540.76,538.663,0.0
52585.0,STARLINK-3906,PAYLOAD,2024-02-02 01:30:54,15.08851785,0.000149,53.2177,320.6082,91.1863,268.93,0.0001632,2.311e-05,0.0,0 STARLINK-3906,1 52585U 22051BB  24033.06313200  .00002311  00000-0  16320-3 0  9994,2 52585  53.2177 320.6082 0001490  91.1863 268.9300 15.08851785 95858,6917.844,95.437,540.74,538.679,0.0
52585.0,STARLINK-3906,PAYLOAD,2024-02-02 19:00:10,15.08833097,0.0001875,53.2172,317.3408,62.801,297.3173,0.00035412,5.351e-05,0.0,0 STARLINK-3906,1 52585U 22051BB  24033.79178308  .00005351  00000-0  35412-3 0  9992,2 52585  53.2172 317.3408 0001875  62.8010 297.3173 15.08833097 96035,6917.901,95.438,541.064,538.469,0.0
52585.0,STARLINK-3906,PAYLOAD,2024-02-02 22:10:56,15.08830779,0.000168,53.2178,316.7431,92.2415,267.8769,0.00020397,2.959e-05,0.0,0 STARLINK-3906,1 52585U 22051BB  24033.92426294  .00002959  00000-0  20397-3 0  9994,2 52585  53.2178 316.7431 0001680  92.2415 267.8769 15.08830779 95980,6917.909,95.438,540.936,538.611,0.0
52585.0,STARLINK-3906,PAYLOAD,2024-02-03 01:21:42,15.08826442,0.0001521,53.2189,316.1483,92.464,267.6527,0.00015225,2.135e-05,0.0,0 STARLINK-3906,1 52585U 22051BB  24034.05674428  .00002135  00000-0  15225-3 0  9993,2 52585  53.2189 316.1483 0001521  92.4640 267.6527 15.08826442 96005,6917.922,95.438,540.839,538.735,0.0
52585.0,STARLINK-3906,PAYLOAD,2024-02-03 22:01:42,15.08847285,0.0001273,53.2179,312.2777,86.9921,273.1217,-1.2095e-05,-4.8e-06,0.0,0 STARLINK-3906,1 52585U 22051BB  24034.91785555 -.00000480  00000-0 -12095-4 0  9998,2 52585  53.2179 312.2777 0001273  86.9921 273.1217 15.08847285 96131,6917.858,95.437,540.604,538.842,0.0
52585.0,STARLINK-3906,PAYLOAD,2024-02-04 01:12:28,15.08851734,0.0001427,53.2182,311.6831,90.6698,269.4458,3.0273e-05,1.94e-06,0.0,0 STARLINK-3906,1 52585U 22051BB  24035.05033121  .00000194  00000-0  30273-4 0  9997,2 52585  53.2182 311.6831 0001427  90.6698 269.4458 15.08851734 96222,6917.845,95.437,540.697,538.722,0.0
52585.0,STARLINK-3906,PAYLOAD,2024-02-04 04:23:14,15.08854382,0.0001487,53.2178,311.0871,92.806,267.3102,4.301e-05,3.97e-06,0.0,0 STARLINK-3906,1 52585U 22051BB  24035.18280919  .00000397  00000-0  43010-4 0  9998,2 52585  53.2178 311.0871 0001487  92.8060 267.3102 15.08854382 96177,6917.836,95.437,540.73,538.673,0.0
52585.0,STARLINK-3906,PAYLOAD,2024-02-04 18:41:43,15.0884053,0.0001703,53.2182,308.4077,110.2638,249.8538,7.2691e-05,8.69e-06,0.0,0 STARLINK-3906,1 52585U 22051BB  24035.77897723  .00000869  00000-0  72691-4 0  9991,2 52585  53.2182 308.4077 0001703 110.2638 249.8538 15.08840530 96333,6917.879,95.438,540.922,538.566,0.0
52585.0,STARLINK-3906,PAYLOAD,2024-02-04 21:52:29,15.0884209,0.0001341,53.217,307.8131,99.6795,260.4348,8.5976e-05,1.081e-05,0.0,0 STARLINK-3906,1 52585U 22051BB  24035.91145564  .00001081  00000-0  85976-4 0  9993,2 52585  53.2170 307.8131 0001341  99.6795 260.4348 15.08842090 96281,6917.874,95.437,540.667,538.811,0.0
52585.0,STARLINK-3906,PAYLOAD,2024-02-05 10:35:34,15.08844849,0.0001424,53.2174,305.4365,73.5958,286.5191,9.998e-05,1.304e-05,0.0,0 STARLINK-3906,1 52585U 22051BB  24036.44137334  .00001304  00000-0  99980-4 0  9996,2 52585  53.2174 305.4365 0001424  73.5958 286.5191 15.08844849 96360,6917.866,95.437,540.716,538.745,0.0
52585.0,STARLINK-3906,PAYLOAD,2024-02-05 21:43:17,15.08839826,0.0001619,53.2183,303.3585,109.2551,250.8616,-7.1441e-05,-1.425e-05,0.0,0 STARLINK-3906,1 52585U 22051BB  24036.90506248 -.00001425  00000-0 -71441-4 0  9999,2 52585  53.2183 303.3585 0001619 109.2551 250.8616 15.08839826 96436,6917.881,95.438,540.866,538.626,0.0
52585.0,STARLINK-3906,PAYLOAD,2024-02-06 04:04:49,15.08843697,0.0001487,53.2182,302.1675,94.249,265.8673,7.2777e-06,-1.72e-06,0.0,0 STARLINK-3906,1 52585U 22051BB  24037.17001750 -.00000172  00000-0  72777-5 0  9998,2 52585  53.2182 302.1675 0001487  94.2490 265.8673 15.08843697 96542,6917.869,95.437,540.763,538.705,0.0
52585.0,STARLINK-3906,PAYLOAD,2024-02-06 21:34:04,15.08841018,0.000157,53.2184,298.896,109.1819,250.9343,3.4292e-05,2.58e-06,0.0,0 STARLINK-3906,1 52585U 22051BB  24037.89866008  .00000258  00000-0  34292-4 0  9995,2 52585  53.2184 298.8960 0001570 109.1819 250.9343 15.08841018 96584,6917.877,95.437,540.828,538.656,0.0
52585.0,STARLINK-3906,PAYLOAD,2024-02-07 10:17:09,15.08840671,0.0001442,53.2164,296.5176,105.2462,254.869,2.2745e-07,-2.84e-06,0.0,0 STARLINK-3906,1 52585U 22051BB  24038.42858077 -.00000284  00000-0  22745-6 0  9994,2 52585  53.2164 296.5176 0001442 105.2462 254.8690 15.08840671 96734,6917.878,95.438,540.741,538.746,0.0
52585.0,STARLINK-3906,PAYLOAD,2024-02-07 21:24:51,15.08833357,0.0001485,53.216,294.4366,93.5706,266.5455,0.0001089,1.445e-05,0.0,0 STARLINK-3906,1 52585U 22051BB  24038.89226546  .00001445  00000-0  10890-3 0  9999,2 52585  53.2160 294.4366 0001485  93.5706 266.5455 15.08833357 96737,6917.901,95.438,540.793,538.738,0.0
52585.0,STARLINK-3906,PAYLOAD,2024-02-08 10:07:56,15.08842687,0.0001497,53.2171,292.0589,90.1509,269.9655,5.2603e-05,5.49e-06,0.0,0 STARLINK-3906,1 52585U 22051BB  24039.42218241  .00000549  00000-0  52603-4 0  9995,2 52585  53.2171 292.0589 0001497  90.1509 269.9655 15.08842687 96811,6917.872,95.437,540.773,538.702,0.0
52585.0,STARLINK-3906,PAYLOAD,2024-02-08 22:51:01,15.08846805,0.0001504,53.2172,289.6775,94.2884,265.828,5.3772e-05,5.68e-06,0.0,0 STARLINK-3906,1 52585U 22051BB  24039.95210065  .00000568  00000-0  53772-4 0  9998,2 52585  53.2172 289.6775 0001504  94.2884 265.8280 15.08846805 96894,6917.86,95.437,540.765,538.684,0.0
